[
    {
        "Altitude(m)": 710830.5393502376,
        "Argument of Periapsis(deg)": 0.007973084830638947,
        "Eccentricity": 0.0,
        "Inclination(deg)": 45.0,
        "Latitude(deg)": -27.69701766929535,
        "Longitude(deg)": 140.94262115634282,
        "Mean Anomaly(deg)": 220.80055165323662,
        "RAAN(deg)": 29.992473640979252,
        "Satellite Name": "Constellation 1 145",
        "Satellite Number": 145,
        "Semi-Major Axis(m)": 7083131.272910544,
        "Time(s)": 133
    },
    {
        "Altitude(m)": 710844.3746712935,
        "Argument of Periapsis(deg)": 0.008033032836884352,
        "Eccentricity": 0.0,
        "Inclination(deg)": 45.0,
        "Latitude(deg)": -27.733728622138468,
        "Longitude(deg)": 140.99303209608027,
        "Mean Anomaly(deg)": 220.86125279348644,
        "RAAN(deg)": 29.992417051813685,
        "Satellite Name": "Constellation 1 145",
        "Satellite Number": 145,
        "Semi-Major Axis(m)": 7083131.272910544,
        "Time(s)": 134
    },
    {
        "Altitude(m)": 710858.208934861,
        "Argument of Periapsis(deg)": 0.008092980843129758,
        "Eccentricity": 0.0,
        "Inclination(deg)": 45.0,
        "Latitude(deg)": -27.770417807268934,
        "Longitude(deg)": 141.0434794291625,
        "Mean Anomaly(deg)": 220.92195393373638,
        "RAAN(deg)": 29.99236046264811,
        "Satellite Name": "Constellation 1 145",
        "Satellite Number": 145,
        "Semi-Major Axis(m)": 7083131.272910544,
        "Time(s)": 135
    },
    {
        "Altitude(m)": 710872.042093021,
        "Argument of Periapsis(deg)": 0.008152928849375162,
        "Eccentricity": 0.0,
        "Inclination(deg)": 45.0,
        "Latitude(deg)": -27.807085177252745,
        "Longitude(deg)": 141.09396321518008,
        "Mean Anomaly(deg)": 220.9826550739863,
        "RAAN(deg)": 29.99230387348255,
        "Satellite Name": "Constellation 1 145",
        "Satellite Number": 145,
        "Semi-Major Axis(m)": 7083131.272910544,
        "Time(s)": 136
    },
    {
        "Altitude(m)": 710885.8740978504,
        "Argument of Periapsis(deg)": 0.008212876855620568,
        "Eccentricity": 0.0,
        "Inclination(deg)": 45.0,
        "Latitude(deg)": -27.843730684587392,
        "Longitude(deg)": 141.14448351370064,
        "Mean Anomaly(deg)": 221.0433562142362,
        "RAAN(deg)": 29.992247284316974,
        "Satellite Name": "Constellation 1 145",
        "Satellite Number": 145,
        "Semi-Major Axis(m)": 7083131.272910544,
        "Time(s)": 137
    },
    {
        "Altitude(m)": 710899.7049014142,
        "Argument of Periapsis(deg)": 0.008272824861865974,
        "Eccentricity": 0.0,
        "Inclination(deg)": 45.0,
        "Latitude(deg)": -27.88035428170206,
        "Longitude(deg)": 141.19504038426845,
        "Mean Anomaly(deg)": 221.10405735448603,
        "RAAN(deg)": 29.992190695151404,
        "Satellite Name": "Constellation 1 145",
        "Satellite Number": 145,
        "Semi-Major Axis(m)": 7083131.272910544,
        "Time(s)": 138
    },
    {
        "Altitude(m)": 710913.5344557713,
        "Argument of Periapsis(deg)": 0.00833277286811138,
        "Eccentricity": 0.0,
        "Inclination(deg)": 45.0,
        "Latitude(deg)": -27.91695592095762,
        "Longitude(deg)": 141.24563388640448,
        "Mean Anomaly(deg)": 221.164758494736,
        "RAAN(deg)": 29.992134105985837,
        "Satellite Name": "Constellation 1 145",
        "Satellite Number": 145,
        "Semi-Major Axis(m)": 7083131.272910544,
        "Time(s)": 139
    },
    {
        "Altitude(m)": 710927.3627129779,
        "Argument of Periapsis(deg)": 0.008392720874356788,
        "Eccentricity": 0.0,
        "Inclination(deg)": 45.0,
        "Latitude(deg)": -27.953535554645985,
        "Longitude(deg)": 141.29626407960473,
        "Mean Anomaly(deg)": 221.2254596349859,
        "RAAN(deg)": 29.99207751682027,
        "Satellite Name": "Constellation 1 145",
        "Satellite Number": 145,
        "Semi-Major Axis(m)": 7083131.272910544,
        "Time(s)": 140
    },
    {
        "Altitude(m)": 710941.1896250836,
        "Argument of Periapsis(deg)": 0.008452668880602192,
        "Eccentricity": 0.0,
        "Inclination(deg)": 45.0,
        "Latitude(deg)": -27.99009313499041,
        "Longitude(deg)": 141.3469308552437,
        "Mean Anomaly(deg)": 221.28616077523577,
        "RAAN(deg)": 29.992020927654696,
        "Satellite Name": "Constellation 1 145",
        "Satellite Number": 145,
        "Semi-Major Axis(m)": 7083131.272910544,
        "Time(s)": 141
    },
    {
        "Altitude(m)": 710955.0151441282,
        "Argument of Periapsis(deg)": 0.008512616886847598,
        "Eccentricity": 0.0,
        "Inclination(deg)": 45.0,
        "Latitude(deg)": -28.026628614146066,
        "Longitude(deg)": 141.39763460896145,
        "Mean Anomaly(deg)": 221.34686191548562,
        "RAAN(deg)": 29.991964338489133,
        "Satellite Name": "Constellation 1 145",
        "Satellite Number": 145,
        "Semi-Major Axis(m)": 7083131.272910544,
        "Time(s)": 142
    },
    {
        "Altitude(m)": 710968.8392221489,
        "Argument of Periapsis(deg)": 0.008572564893093004,
        "Eccentricity": 0.0,
        "Inclination(deg)": 45.0,
        "Latitude(deg)": -28.06314194419876,
        "Longitude(deg)": 141.44837523208156,
        "Mean Anomaly(deg)": 221.4075630557356,
        "RAAN(deg)": 29.99190774932356,
        "Satellite Name": "Constellation 1 145",
        "Satellite Number": 145,
        "Semi-Major Axis(m)": 7083131.272910544,
        "Time(s)": 143
    },
    {
        "Altitude(m)": 710982.6618111725,
        "Argument of Periapsis(deg)": 0.008632512899338408,
        "Eccentricity": 0.0,
        "Inclination(deg)": 45.0,
        "Latitude(deg)": -28.099633077165503,
        "Longitude(deg)": 141.49915278399806,
        "Mean Anomaly(deg)": 221.46826419598545,
        "RAAN(deg)": 29.99185116015799,
        "Satellite Name": "Constellation 1 145",
        "Satellite Number": 145,
        "Semi-Major Axis(m)": 7083131.272910544,
        "Time(s)": 144
    },
    {
        "Altitude(m)": 710996.4828632262,
        "Argument of Periapsis(deg)": 0.008692460905583814,
        "Eccentricity": 0.0,
        "Inclination(deg)": 45.0,
        "Latitude(deg)": -28.136101964994506,
        "Longitude(deg)": 141.5499673240784,
        "Mean Anomaly(deg)": 221.52896533623533,
        "RAAN(deg)": 29.991794570992415,
        "Satellite Name": "Constellation 1 145",
        "Satellite Number": 145,
        "Semi-Major Axis(m)": 7083131.272910544,
        "Time(s)": 145
    },
    {
        "Altitude(m)": 711010.3023303293,
        "Argument of Periapsis(deg)": 0.00875240891182922,
        "Eccentricity": 0.0,
        "Inclination(deg)": 45.0,
        "Latitude(deg)": -28.17254855956497,
        "Longitude(deg)": 141.6008189116628,
        "Mean Anomaly(deg)": 221.58966647648532,
        "RAAN(deg)": 29.99173798182685,
        "Satellite Name": "Constellation 1 145",
        "Satellite Number": 145,
        "Semi-Major Axis(m)": 7083131.272910544,
        "Time(s)": 146
    },
    {
        "Altitude(m)": 711024.1201644992,
        "Argument of Periapsis(deg)": 0.008812356918074627,
        "Eccentricity": 0.0,
        "Inclination(deg)": 45.0,
        "Latitude(deg)": -28.208972812686874,
        "Longitude(deg)": 141.65170760606327,
        "Mean Anomaly(deg)": 221.65036761673517,
        "RAAN(deg)": 29.991681392661278,
        "Satellite Name": "Constellation 1 145",
        "Satellite Number": 145,
        "Semi-Major Axis(m)": 7083131.272910544,
        "Time(s)": 147
    },
    {
        "Altitude(m)": 711037.9363177352,
        "Argument of Periapsis(deg)": 0.008872304924320031,
        "Eccentricity": 0.0,
        "Inclination(deg)": 45.0,
        "Latitude(deg)": -28.245374676101218,
        "Longitude(deg)": 141.70263329846733,
        "Mean Anomaly(deg)": 221.71106875698507,
        "RAAN(deg)": 29.99162480349571,
        "Satellite Name": "Constellation 1 145",
        "Satellite Number": 145,
        "Semi-Major Axis(m)": 7083131.272910544,
        "Time(s)": 148
    },
    {
        "Altitude(m)": 711051.7507420514,
        "Argument of Periapsis(deg)": 0.008932252930565437,
        "Eccentricity": 0.0,
        "Inclination(deg)": 45.0,
        "Latitude(deg)": -28.281754101480153,
        "Longitude(deg)": 141.75359638432408,
        "Mean Anomaly(deg)": 221.77176989723495,
        "RAAN(deg)": 29.991568214330144,
        "Satellite Name": "Constellation 1 145",
        "Satellite Number": 145,
        "Semi-Major Axis(m)": 7083131.272910544,
        "Time(s)": 149
    },
    {
        "Altitude(m)": 711065.5633894423,
        "Argument of Periapsis(deg)": 0.008992200936810843,
        "Eccentricity": 0.0,
        "Inclination(deg)": 45.0,
        "Latitude(deg)": -28.31811104042603,
        "Longitude(deg)": 141.8045967547626,
        "Mean Anomaly(deg)": 221.83247103748488,
        "RAAN(deg)": 29.991511625164573,
        "Satellite Name": "Constellation 1 145",
        "Satellite Number": 145,
        "Semi-Major Axis(m)": 7083131.272910544,
        "Time(s)": 150
    },
    {
        "Altitude(m)": 711079.3742119067,
        "Argument of Periapsis(deg)": 0.009052148943056249,
        "Eccentricity": 0.0,
        "Inclination(deg)": 45.0,
        "Latitude(deg)": -28.35444544447205,
        "Longitude(deg)": 141.85563446897905,
        "Mean Anomaly(deg)": 221.8931721777348,
        "RAAN(deg)": 29.991455035999,
        "Satellite Name": "Constellation 1 145",
        "Satellite Number": 145,
        "Semi-Major Axis(m)": 7083131.272910544,
        "Time(s)": 151
    }
]